start=new Date('2022-11-28T00:00:00.000Z').valueOf();
sats=[{"RA_OF_ASC_NODE":"186.8554","GP_ID":"218991722","COUNTRY_CODE":"US","OBJECT_TYPE":"PAYLOAD","CENTER_NAME":"EARTH","MEAN_ELEMENT_THEORY":"SGP4","APOAPSIS":"541.765","REV_AT_EPOCH":"3478","TIME_SYSTEM":"UTC","EPOCH":"2022-11-27T18:12:04.458816","FILE":"3671921","PERIOD":"95.438","TLE_LINE1":"1 52334U 22045D   22331.75838494 -.00000729  00000-0 -27657-4 0  9990","NORAD_CAT_ID":"52334","SEMIMAJOR_AXIS":"6917.912","DECAY_DATE":null,"SITE":"AFETR","MEAN_MOTION_DDOT":"0.0000000000000","PERIAPSIS":"537.790","MEAN_MOTION":"15.08829608","ECCENTRICITY":"0.00028730","INCLINATION":"53.2167","LAUNCH_DATE":"2022-04-29","TLE_LINE2":"2 52334  53.2167 186.8554 0002873  34.8037 325.3142 15.08829608 34784","MEAN_MOTION_DOT":"-0.00000729","BSTAR":"-0.00002765700000","RCS_SIZE":"LARGE","ARG_OF_PERICENTER":"34.8037","REF_FRAME":"TEME","OBJECT_NAME":"STARLINK-3880","MEAN_ANOMALY":"325.3142","ELEMENT_SET_NO":"999","OBJECT_ID":"2022-045D","EPHEMERIS_TYPE":"0","CLASSIFICATION_TYPE":"U"},{"INCLINATION":"53.2156","LAUNCH_DATE":"2022-04-29","MEAN_MOTION":"15.08830625","ECCENTRICITY":"0.00032710","BSTAR":"-0.00004509100000","MEAN_MOTION_DOT":"-0.00001006","TLE_LINE2":"2 52335  53.2156 186.2776 0003271  37.6261 322.4959 15.08830625 34815","PERIAPSIS":"537.511","MEAN_ANOMALY":"322.4959","OBJECT_ID":"2022-045E","CLASSIFICATION_TYPE":"U","EPHEMERIS_TYPE":"0","ELEMENT_SET_NO":"999","RCS_SIZE":"LARGE","ARG_OF_PERICENTER":"37.6261","OBJECT_NAME":"STARLINK-3814","REF_FRAME":"TEME","OBJECT_TYPE":"PAYLOAD","CENTER_NAME":"EARTH","TIME_SYSTEM":"UTC","EPOCH":"2022-11-27T21:17:32.731296","MEAN_ELEMENT_THEORY":"SGP4","APOAPSIS":"542.037","REV_AT_EPOCH":"3481","GP_ID":"218991474","COUNTRY_CODE":"US","RA_OF_ASC_NODE":"186.2776","NORAD_CAT_ID":"52335","TLE_LINE1":"1 52335U 22045E   22331.88718439 -.00001006  00000-0 -45091-4 0  9992","DECAY_DATE":null,"SITE":"AFETR","MEAN_MOTION_DDOT":"0.0000000000000","SEMIMAJOR_AXIS":"6917.909","PERIOD":"95.438","FILE":"3671921"},{"TLE_LINE2":"2 52336  53.2172 186.3109 0003064  41.4283 318.6941 15.08830996 34811","MEAN_MOTION_DOT":"-0.00000842","BSTAR":"-0.00003474400000","MEAN_MOTION":"15.08830996","ECCENTRICITY":"0.00030640","INCLINATION":"53.2172","LAUNCH_DATE":"2022-04-29","PERIAPSIS":"537.653","ELEMENT_SET_NO":"999","OBJECT_ID":"2022-045F","EPHEMERIS_TYPE":"0","CLASSIFICATION_TYPE":"U","MEAN_ANOMALY":"318.6941","REF_FRAME":"TEME","OBJECT_NAME":"STARLINK-3823","RCS_SIZE":"LARGE","ARG_OF_PERICENTER":"41.4283","MEAN_ELEMENT_THEORY":"SGP4","APOAPSIS":"541.893","REV_AT_EPOCH":"3481","EPOCH":"2022-11-27T21:08:19.632192","TIME_SYSTEM":"UTC","OBJECT_TYPE":"PAYLOAD","CENTER_NAME":"EARTH","RA_OF_ASC_NODE":"186.3109","COUNTRY_CODE":"US","GP_ID":"218992724","SEMIMAJOR_AXIS":"6917.908","DECAY_DATE":null,"MEAN_MOTION_DDOT":"0.0000000000000","SITE":"AFETR","TLE_LINE1":"1 52336U 22045F   22331.88078278 -.00000842  00000-0 -34744-4 0  9993","NORAD_CAT_ID":"52336","PERIOD":"95.438","FILE":"3671921"},{"GP_ID":"218992973","COUNTRY_CODE":"US","RA_OF_ASC_NODE":"186.2098","TIME_SYSTEM":"UTC","EPOCH":"2022-11-27T21:33:27.494496","REV_AT_EPOCH":"3481","APOAPSIS":"542.128","MEAN_ELEMENT_THEORY":"SGP4","CENTER_NAME":"EARTH","OBJECT_TYPE":"PAYLOAD","FILE":"3671921","PERIOD":"95.437","DECAY_DATE":null,"SITE":"AFETR","MEAN_MOTION_DDOT":"0.0000000000000","SEMIMAJOR_AXIS":"6917.855","NORAD_CAT_ID":"52337","TLE_LINE1":"1 52337U 22045G   22331.89823489  .00000912  00000-0  75451-4 0  9993","PERIAPSIS":"537.312","BSTAR":"0.00007545100000","TLE_LINE2":"2 52337  53.2145 186.2098 0003481  40.6677 319.4575 15.08848403 34813","MEAN_MOTION_DOT":"0.00000912","LAUNCH_DATE":"2022-04-29","INCLINATION":"53.2145","ECCENTRICITY":"0.00034810","MEAN_MOTION":"15.08848403","OBJECT_NAME":"STARLINK-3797","REF_FRAME":"TEME","ARG_OF_PERICENTER":"40.6677","RCS_SIZE":"LARGE","EPHEMERIS_TYPE":"0","CLASSIFICATION_TYPE":"U","OBJECT_ID":"2022-045G","ELEMENT_SET_NO":"999","MEAN_ANOMALY":"319.4575"},{"NORAD_CAT_ID":"52338","TLE_LINE1":"1 52338U 22045H   22331.86973436 -.00000659  00000-0 -23303-4 0  9998","DECAY_DATE":null,"SITE":"AFETR","MEAN_MOTION_DDOT":"0.0000000000000","SEMIMAJOR_AXIS":"6917.871","FILE":"3671921","PERIOD":"95.437","OBJECT_TYPE":"PAYLOAD","CENTER_NAME":"EARTH","EPOCH":"2022-11-27T20:52:25.048704","TIME_SYSTEM":"UTC","APOAPSIS":"541.096","MEAN_ELEMENT_THEORY":"SGP4","REV_AT_EPOCH":"3481","COUNTRY_CODE":"US","GP_ID":"218991224","RA_OF_ASC_NODE":"186.3597","MEAN_ANOMALY":"312.6321","OBJECT_ID":"2022-045H","CLASSIFICATION_TYPE":"U","EPHEMERIS_TYPE":"0","ELEMENT_SET_NO":"999","RCS_SIZE":"LARGE","ARG_OF_PERICENTER":"47.4837","OBJECT_NAME":"STARLINK-3815","REF_FRAME":"TEME","INCLINATION":"53.2152","LAUNCH_DATE":"2022-04-29","MEAN_MOTION":"15.08843234","ECCENTRICITY":"0.00019660","BSTAR":"-0.00002330300000","MEAN_MOTION_DOT":"-0.00000659","TLE_LINE2":"2 52338  53.2152 186.3597 0001966  47.4837 312.6321 15.08843234 34817","PERIAPSIS":"538.375"},{"MEAN_ANOMALY":"323.0941","EPHEMERIS_TYPE":"0","CLASSIFICATION_TYPE":"U","OBJECT_ID":"2022-045J","ELEMENT_SET_NO":"999","ARG_OF_PERICENTER":"37.0254","RCS_SIZE":"LARGE","OBJECT_NAME":"STARLINK-3792","REF_FRAME":"TEME","LAUNCH_DATE":"2022-04-29","INCLINATION":"53.2154","ECCENTRICITY":"0.00029470","MEAN_MOTION":"15.08831698","BSTAR":"-0.00001551900000","TLE_LINE2":"2 52339  53.2154 186.3401 0002947  37.0254 323.0941 15.08831698 34817","MEAN_MOTION_DOT":"-0.00000536","PERIAPSIS":"537.732","NORAD_CAT_ID":"52339","TLE_LINE1":"1 52339U 22045J   22331.87342058 -.00000536  00000-0 -15519-4 0  9994","MEAN_MOTION_DDOT":"0.0000000000000","DECAY_DATE":null,"SITE":"AFETR","SEMIMAJOR_AXIS":"6917.906","PERIOD":"95.438","FILE":"3671921","CENTER_NAME":"EARTH","OBJECT_TYPE":"PAYLOAD","TIME_SYSTEM":"UTC","EPOCH":"2022-11-27T20:57:43.538112","REV_AT_EPOCH":"3481","MEAN_ELEMENT_THEORY":"SGP4","APOAPSIS":"541.809","COUNTRY_CODE":"US","GP_ID":"218991973","RA_OF_ASC_NODE":"186.3401"},{"OBJECT_ID":"2022-045K","CLASSIFICATION_TYPE":"U","EPHEMERIS_TYPE":"0","ELEMENT_SET_NO":"999","MEAN_ANOMALY":"314.5547","OBJECT_NAME":"STARLINK-3818","REF_FRAME":"TEME","RCS_SIZE":"LARGE","ARG_OF_PERICENTER":"45.5683","BSTAR":"-0.00005903800000","MEAN_MOTION_DOT":"-0.00001228","TLE_LINE2":"2 52340  53.2168 176.4865 0002910  45.5683 314.5547 15.08833921 34939","INCLINATION":"53.2168","LAUNCH_DATE":"2022-04-29","MEAN_MOTION":"15.08833921","ECCENTRICITY":"0.00029100","PERIAPSIS":"537.751","DECAY_DATE":null,"SITE":"AFETR","MEAN_MOTION_DDOT":"0.0000000000000","SEMIMAJOR_AXIS":"6917.899","NORAD_CAT_ID":"52340","TLE_LINE1":"1 52340U 22045K   22331.83658414 -.00001228  00000-0 -59038-4 0  9991","FILE":"3671921","PERIOD":"95.438","TIME_SYSTEM":"UTC","EPOCH":"2022-11-27T20:04:40.869696","MEAN_ELEMENT_THEORY":"SGP4","APOAPSIS":"541.777","REV_AT_EPOCH":"3493","OBJECT_TYPE":"PAYLOAD","CENTER_NAME":"EARTH","GP_ID":"218992225","COUNTRY_CODE":"US","RA_OF_ASC_NODE":"176.4865"},{"TLE_LINE1":"1 52341U 22045L   22331.87709920 -.00000769  00000-0 -30170-4 0  9990","NORAD_CAT_ID":"52341","SEMIMAJOR_AXIS":"6917.869","DECAY_DATE":null,"SITE":"AFETR","MEAN_MOTION_DDOT":"0.0000000000000","PERIOD":"95.437","FILE":"3671921","OBJECT_TYPE":"PAYLOAD","CENTER_NAME":"EARTH","MEAN_ELEMENT_THEORY":"SGP4","APOAPSIS":"542.156","REV_AT_EPOCH":"3481","EPOCH":"2022-11-27T21:03:01.370880","TIME_SYSTEM":"UTC","RA_OF_ASC_NODE":"186.3185","COUNTRY_CODE":"US","GP_ID":"218992475","MEAN_ANOMALY":"323.1908","ELEMENT_SET_NO":"999","OBJECT_ID":"2022-045L","CLASSIFICATION_TYPE":"U","EPHEMERIS_TYPE":"0","RCS_SIZE":"LARGE","ARG_OF_PERICENTER":"36.9325","REF_FRAME":"TEME","OBJECT_NAME":"STARLINK-3843","MEAN_MOTION":"15.08843850","ECCENTRICITY":"0.00035010","INCLINATION":"53.2163","LAUNCH_DATE":"2022-04-29","MEAN_MOTION_DOT":"-0.00000769","TLE_LINE2":"2 52341  53.2163 186.3185 0003501  36.9325 323.1908 15.08843850 34810","BSTAR":"-0.00003017000000","PERIAPSIS":"537.312"},{"TLE_LINE1":"1 52342U 22045M   22331.69674796 -.00001014  00000-0 -45562-4 0  9998","NORAD_CAT_ID":"52342","SEMIMAJOR_AXIS":"6917.901","DECAY_DATE":null,"SITE":"AFETR","MEAN_MOTION_DDOT":"0.0000000000000","PERIOD":"95.438","FILE":"3671921","CENTER_NAME":"EARTH","OBJECT_TYPE":"PAYLOAD","REV_AT_EPOCH":"3492","APOAPSIS":"541.859","MEAN_ELEMENT_THEORY":"SGP4","TIME_SYSTEM":"UTC","EPOCH":"2022-11-27T16:43:19.023744","RA_OF_ASC_NODE":"177.1161","GP_ID":"218991723","COUNTRY_CODE":"US","MEAN_ANOMALY":"321.8974","ELEMENT_SET_NO":"999","EPHEMERIS_TYPE":"0","CLASSIFICATION_TYPE":"U","OBJECT_ID":"2022-045M","ARG_OF_PERICENTER":"38.2233","RCS_SIZE":"LARGE","REF_FRAME":"TEME","OBJECT_NAME":"STARLINK-3850","ECCENTRICITY":"0.00030260","MEAN_MOTION":"15.08833393","LAUNCH_DATE":"2022-04-29","INCLINATION":"53.2165","TLE_LINE2":"2 52342  53.2165 177.1161 0003026  38.2233 321.8974 15.08833393 34921","MEAN_MOTION_DOT":"-0.00001014","BSTAR":"-0.00004556200000","PERIAPSIS":"537.672"},{"RCS_SIZE":"LARGE","ARG_OF_PERICENTER":"35.4413","OBJECT_NAME":"STARLINK-3849","REF_FRAME":"TEME","MEAN_ANOMALY":"324.6786","OBJECT_ID":"2022-045N","CLASSIFICATION_TYPE":"U","EPHEMERIS_TYPE":"0","ELEMENT_SET_NO":"999","PERIAPSIS":"537.609","INCLINATION":"53.2191","LAUNCH_DATE":"2022-04-29","MEAN_MOTION":"15.08833647","ECCENTRICITY":"0.00031160","BSTAR":"0.00001450100000","TLE_LINE2":"2 52343  53.2191 187.0697 0003116  35.4413 324.6786 15.08833647 34793","MEAN_MOTION_DOT":"-0.00000058","PERIOD":"95.438","FILE":"3671921","NORAD_CAT_ID":"52343","TLE_LINE1":"1 52343U 22045N   22331.71054391 -.00000058  00000-0  14501-4 0  9990","DECAY_DATE":null,"SITE":"AFETR","MEAN_MOTION_DDOT":"0.0000000000000","SEMIMAJOR_AXIS":"6917.900","COUNTRY_CODE":"US","GP_ID":"218991475","RA_OF_ASC_NODE":"187.0697","OBJECT_TYPE":"PAYLOAD","CENTER_NAME":"EARTH","TIME_SYSTEM":"UTC","EPOCH":"2022-11-27T17:03:10.993824","MEAN_ELEMENT_THEORY":"SGP4","APOAPSIS":"541.920","REV_AT_EPOCH":"3479"}];
